{"fetched_at":"2026-07-19T17:31:54.212Z","source":"https://celestrak.org/NORAD/elements/gp.php?NAME=SENTINEL&FORMAT=JSON","constellation":"sentinel-1","records":[{"OBJECT_NAME":"SENTINEL-1A","OBJECT_ID":"2014-016A","EPOCH":"2026-07-19T07:43:23.566656","CLASSIFICATION_TYPE":"U","MEAN_MOTION":14.59173784,"ECCENTRICITY":0.00014525,"INCLINATION":98.1732,"RA_OF_ASC_NODE":207.3846,"ARG_OF_PERICENTER":82.6652,"MEAN_ANOMALY":277.4713,"EPHEMERIS_TYPE":0,"NORAD_CAT_ID":39634,"ELEMENT_SET_NO":999,"REV_AT_EPOCH":65470,"BSTAR":0.00002131307,"MEAN_MOTION_DOT":5.5e-7,"MEAN_MOTION_DDOT":0},{"OBJECT_NAME":"SENTINEL-1C","OBJECT_ID":"2024-235A","EPOCH":"2026-07-19T07:01:20.282304","CLASSIFICATION_TYPE":"U","MEAN_MOTION":14.59198316,"ECCENTRICITY":0.00013939,"INCLINATION":98.1824,"RA_OF_ASC_NODE":207.1453,"ARG_OF_PERICENTER":89.04,"MEAN_ANOMALY":271.096,"EPHEMERIS_TYPE":0,"NORAD_CAT_ID":62261,"ELEMENT_SET_NO":999,"REV_AT_EPOCH":8609,"BSTAR":0.000022428647,"MEAN_MOTION_DOT":6e-7,"MEAN_MOTION_DDOT":0},{"OBJECT_NAME":"SENTINEL-1D","OBJECT_ID":"2025-251A","EPOCH":"2026-07-19T06:12:11.360448","CLASSIFICATION_TYPE":"U","MEAN_MOTION":14.59197206,"ECCENTRICITY":0.00013932,"INCLINATION":98.183,"RA_OF_ASC_NODE":207.1669,"ARG_OF_PERICENTER":88.7541,"MEAN_ANOMALY":271.3819,"EPHEMERIS_TYPE":0,"NORAD_CAT_ID":66315,"ELEMENT_SET_NO":999,"REV_AT_EPOCH":3740,"BSTAR":-4.42801e-7,"MEAN_MOTION_DOT":-4.8e-7,"MEAN_MOTION_DDOT":0}]}
