SENTINEL-1A             
1 39634U 14016A   26200.32180054  .00000055  00000+0  21313-4 0  9993
2 39634  98.1732 207.3846 0001452  82.6652 277.4713 14.59173784654700
SENTINEL-1C             
1 62261U 24235A   26200.29259586  .00000060  00000+0  22429-4 0  9997
2 62261  98.1824 207.1453 0001393  89.0400 271.0960 14.59198316 86095
SENTINEL-1D             
1 66315U 25251A   26200.25846482 -.00000048  00000+0 -44280-6 0  9992
2 66315  98.1830 207.1669 0001393  88.7541 271.3819 14.59197206 37401
